{
  "type": "FeatureCollection",
  "features": [
    {
      "type": "Feature",
      "properties": {
        "norad_id": 43603,
        "name": "BEIDOU-3 M11 (C25)",
        "group": "beidou",
        "lat": 11.815842788556811,
        "lon": -163.8461473731599,
        "alt_km": 21512.684996716154,
        "timestamp": "2025-12-08T23:34:04.234695+00:00",
        "meta_object_name": "BEIDOU-3 M11 (C25)",
        "meta_object_id": "2018-067B",
        "meta_epoch": "2025-12-07T08:23:01.607424",
        "meta_mean_motion": 1.86227152,
        "meta_eccentricity": 0.00055806,
        "meta_inclination": 54.1802,
        "meta_ra_of_asc_node": 187.5103,
        "meta_arg_of_pericenter": 36.6822,
        "meta_mean_anomaly": 323.425,
        "meta_ephemeris_type": 0,
        "meta_classification_type": "U",
        "meta_norad_cat_id": 43603,
        "meta_element_set_no": 999,
        "meta_rev_at_epoch": 4957,
        "meta_bstar": 0,
        "meta_mean_motion_dot": 6e-07,
        "meta_mean_motion_ddot": 0,
        "tle_line1": "1 43603U 18067B   25341.34932416  .00000060  00000+0  00000+0 0  9999",
        "tle_line2": "2 43603  54.1802 187.5103 0005580  36.6822 323.4250  1.86227152 49576"
      },
      "geometry": {
        "type": "Point",
        "coordinates": [
          -163.8461473731599,
          11.815842788556811
        ]
      }
    },
    {
      "type": "Feature",
      "properties": {
        "norad_id": 43622,
        "name": "BEIDOU-3 M13 (C32)",
        "group": "beidou",
        "lat": 35.21893553589376,
        "lon": 96.8366121383387,
        "alt_km": 21528.17777919993,
        "timestamp": "2025-12-08T23:34:04.234707+00:00",
        "meta_object_name": "BEIDOU-3 M13 (C32)",
        "meta_object_id": "2018-072A",
        "meta_epoch": "2025-12-08T09:06:52.153056",
        "meta_mean_motion": 1.86230751,
        "meta_eccentricity": 0.00059246,
        "meta_inclination": 56.4552,
        "meta_ra_of_asc_node": 68.9648,
        "meta_arg_of_pericenter": 298.4192,
        "meta_mean_anomaly": 61.5427,
        "meta_ephemeris_type": 0,
        "meta_classification_type": "U",
        "meta_norad_cat_id": 43622,
        "meta_element_set_no": 999,
        "meta_rev_at_epoch": 4910,
        "meta_bstar": 0,
        "meta_mean_motion_dot": -4.5e-07,
        "meta_mean_motion_ddot": 0,
        "tle_line1": "1 43622U 18072A   25342.37977029 -.00000045  00000+0  00000+0 0  9993",
        "tle_line2": "2 43622  56.4552  68.9648 0005924 298.4192  61.5427  1.86230751 49104"
      },
      "geometry": {
        "type": "Point",
        "coordinates": [
          96.8366121383387,
          35.21893553589376
        ]
      }
    },
    {
      "type": "Feature",
      "properties": {
        "norad_id": 43623,
        "name": "BEIDOU-3 M14 (C33)",
        "group": "beidou",
        "lat": 36.85378626688921,
        "lon": -140.8221471094881,
        "alt_km": 21532.22806203323,
        "timestamp": "2025-12-08T23:34:04.234718+00:00",
        "meta_object_name": "BEIDOU-3 M14 (C33)",
        "meta_object_id": "2018-072B",
        "meta_epoch": "2025-12-08T05:53:08.473344",
        "meta_mean_motion": 1.8623075,
        "meta_eccentricity": 0.00032562,
        "meta_inclination": 56.4569,
        "meta_ra_of_asc_node": 68.9631,
        "meta_arg_of_pericenter": 332.5752,
        "meta_mean_anomaly": 27.4289,
        "meta_ephemeris_type": 0,
        "meta_classification_type": "U",
        "meta_norad_cat_id": 43623,
        "meta_element_set_no": 999,
        "meta_rev_at_epoch": 4909,
        "meta_bstar": 0,
        "meta_mean_motion_dot": -4.5e-07,
        "meta_mean_motion_ddot": 0,
        "tle_line1": "1 43623U 18072B   25342.24523696 -.00000045  00000+0  00000+0 0  9997",
        "tle_line2": "2 43623  56.4569  68.9631 0003256 332.5752  27.4289  1.86230750 49097"
      },
      "geometry": {
        "type": "Point",
        "coordinates": [
          -140.8221471094881,
          36.85378626688921
        ]
      }
    },
    {
      "type": "Feature",
      "properties": {
        "norad_id": 43647,
        "name": "BEIDOU-3 M16 (C35)",
        "group": "beidou",
        "lat": 22.519045146762323,
        "lon": -36.01362138080818,
        "alt_km": 21505.732766920664,
        "timestamp": "2025-12-08T23:34:04.234730+00:00",
        "meta_object_name": "BEIDOU-3 M16 (C35)",
        "meta_object_id": "2018-078A",
        "meta_epoch": "2025-12-08T09:40:29.398656",
        "meta_mean_motion": 1.86232194,
        "meta_eccentricity": 0.00070857,
        "meta_inclination": 54.2661,
        "meta_ra_of_asc_node": 306.6728,
        "meta_arg_of_pericenter": 18.9139,
        "meta_mean_anomaly": 341.1002,
        "meta_ephemeris_type": 0,
        "meta_classification_type": "U",
        "meta_norad_cat_id": 43647,
        "meta_element_set_no": 999,
        "meta_rev_at_epoch": 4860,
        "meta_bstar": 0,
        "meta_mean_motion_dot": -7.3e-07,
        "meta_mean_motion_ddot": 0,
        "tle_line1": "1 43647U 18078A   25342.40311804 -.00000073  00000+0  00000+0 0  9994",
        "tle_line2": "2 43647  54.2661 306.6728 0007085  18.9139 341.1002  1.86232194 48608"
      },
      "geometry": {
        "type": "Point",
        "coordinates": [
          -36.01362138080818,
          22.519045146762323
        ]
      }
    },
    {
      "type": "Feature",
      "properties": {
        "norad_id": 43648,
        "name": "BEIDOU-3 M15 (C34)",
        "group": "beidou",
        "lat": -43.82167679529941,
        "lon": -97.03835463034873,
        "alt_km": 21530.577487659168,
        "timestamp": "2025-12-08T23:34:04.234741+00:00",
        "meta_object_name": "BEIDOU-3 M15 (C34)",
        "meta_object_id": "2018-078B",
        "meta_epoch": "2025-12-05T07:27:18.667008",
        "meta_mean_motion": 1.86231965,
        "meta_eccentricity": 0.00036856,
        "meta_inclination": 54.2646,
        "meta_ra_of_asc_node": 306.7819,
        "meta_arg_of_pericenter": 17.7509,
        "meta_mean_anomaly": 342.2442,
        "meta_ephemeris_type": 0,
        "meta_classification_type": "U",
        "meta_norad_cat_id": 43648,
        "meta_element_set_no": 999,
        "meta_rev_at_epoch": 4856,
        "meta_bstar": 0,
        "meta_mean_motion_dot": -6.9e-07,
        "meta_mean_motion_ddot": 0,
        "tle_line1": "1 43648U 18078B   25339.31063272 -.00000069  00000+0  00000+0 0  9999",
        "tle_line2": "2 43648  54.2646 306.7819 0003685  17.7509 342.2442  1.86231965 48564"
      },
      "geometry": {
        "type": "Point",
        "coordinates": [
          -97.03835463034873,
          -43.82167679529941
        ]
      }
    },
    {
      "type": "Feature",
      "properties": {
        "norad_id": 43683,
        "name": "BEIDOU-3 G1 (C59)",
        "group": "beidou",
        "lat": 2.4474947206770903,
        "lon": -148.39804093597758,
        "alt_km": 35780.46910392872,
        "timestamp": "2025-12-08T23:34:04.234753+00:00",
        "meta_object_name": "BEIDOU-3 G1 (C59)",
        "meta_object_id": "2018-085A",
        "meta_epoch": "2025-12-08T14:16:10.918848",
        "meta_mean_motion": 1.00272096,
        "meta_eccentricity": 0.00017838,
        "meta_inclination": 2.5971,
        "meta_ra_of_asc_node": 103.0649,
        "meta_arg_of_pericenter": 63.1006,
        "meta_mean_anomaly": 265.5494,
        "meta_ephemeris_type": 0,
        "meta_classification_type": "U",
        "meta_norad_cat_id": 43683,
        "meta_element_set_no": 999,
        "meta_rev_at_epoch": 2614,
        "meta_bstar": 0,
        "meta_mean_motion_dot": -2.75e-06,
        "meta_mean_motion_ddot": 0,
        "tle_line1": "1 43683U 18085A   25342.59457082 -.00000275  00000+0  00000+0 0  9995",
        "tle_line2": "2 43683   2.5971 103.0649 0001783  63.1006 265.5494  1.00272096 26143"
      },
      "geometry": {
        "type": "Point",
        "coordinates": [
          -148.39804093597758,
          2.4474947206770903
        ]
      }
    },
    {
      "type": "Feature",
      "properties": {
        "norad_id": 43706,
        "name": "BEIDOU-3 M17 (C36)",
        "group": "beidou",
        "lat": -12.2206176359892,
        "lon": 17.760469166744567,
        "alt_km": 21536.612855108477,
        "timestamp": "2025-12-08T23:34:04.234765+00:00",
        "meta_object_name": "BEIDOU-3 M17 (C36)",
        "meta_object_id": "2018-093A",
        "meta_epoch": "2025-12-07T14:48:21.849120",
        "meta_mean_motion": 1.86228285,
        "meta_eccentricity": 0.00062807,
        "meta_inclination": 54.1726,
        "meta_ra_of_asc_node": 188.7957,
        "meta_arg_of_pericenter": 306.8876,
        "meta_mean_anomaly": 53.1241,
        "meta_ephemeris_type": 0,
        "meta_classification_type": "U",
        "meta_norad_cat_id": 43706,
        "meta_element_set_no": 999,
        "meta_rev_at_epoch": 4797,
        "meta_bstar": 0,
        "meta_mean_motion_dot": 5.7e-07,
        "meta_mean_motion_ddot": 0,
        "tle_line1": "1 43706U 18093A   25341.61691955  .00000057  00000+0  00000+0 0  9998",
        "tle_line2": "2 43706  54.1726 188.7957 0006280 306.8876  53.1241  1.86228285 47971"
      },
      "geometry": {
        "type": "Point",
        "coordinates": [
          17.760469166744567,
          -12.2206176359892
        ]
      }
    }
  ]
}